1 27742U 87020DV  18211.82487263  .00007190  00000-0  31266-2 0  9999
2 27742  74.1878 104.0565 0103287 238.9339 120.1638 14.21397318952352
1 27743U 91009CY  18211.48690972 +.00000022 +00000-0 +33417-3 0  9995
2 27743 074.0620 230.7830 0136832 047.8321 104.5045 12.19990754903531
1 27744U 91009CZ  18212.51430913 -.00000026  00000-0 -11678-3 0  9999
2 27744  74.0503 242.6308 0174874  76.6692  73.1166 12.18532891115356
1 27746U 91009DB  18210.48139743 +.00000230 +00000-0 +24147-2 0  9991
2 27746 074.1026 038.3557 0175364 170.8410 217.5503 12.14166434214110
1 27747U 91009DC  18210.38349191 +.00000090 +00000-0 +10146-2 0  9999
2 27747 073.9619 196.9110 0086820 234.0476 281.9246 12.19123761910556
1 27748U 91009DD  18211.03827458  .00000043  00000-0  52105-3 0  9990
2 27748  74.0490 236.0699 0175083  71.6633 320.9291 12.19276548943332
1 27749U 92093JL  18212.56788372  .00000233  00000-0  13584-3 0  9994
2 27749  71.1054 171.9623 0115982 291.7068 188.5754 14.15058186886017
1 27750U 92093JM  18206.98772778 +.00000701 +00000-0 +32949-3 0  9994
2 27750 071.1597 081.0161 0099239 119.8773 241.2260 14.20760773866833
1 27751U 92093JN  18211.06054768 +.00001060 +00000-0 +27579-3 0  9994
2 27751 071.1661 351.0358 0039675 221.3999 138.4136 14.51477243240129
1 27752U 93014G   18211.85027984 +.00000070 +00000-0 +29664-4 0  9994
2 27752 075.7602 261.2002 0184531 181.3961 303.5228 14.26164885848329
1 27760U 94077M   18211.93814039 +.00000300 +00000-0 +88747-4 0  9990
2 27760 070.9991 052.5952 0058919 249.8707 176.3561 14.50654957971288
1 27762U 99057MV  18212.50290903  .00000086  00000-0  56807-4 0  9990
2 27762  98.4275  46.3615 0183173  81.6952 309.5727 14.13490073859490
1 27763U 00015B   18212.43850123  .00001450  00000-0  37698-3 0  9997
2 27763  64.6444  10.5849 4789198 350.9520   2.7830  5.93813398337026
1 27764U 00025D   18207.56171104 +.00099934 +55150-6 +31870-3 0  9994
2 27764 038.7691 031.8965 2137278 299.6511 077.0432 11.38874499423003
1 27765U 00040D   18212.35747647  .02952853  53820-5  89148-4 0  9999
2 27765  38.7661 310.8701 0111904 285.5856  73.2631 16.25281788485776
1 27768U 02054D   18211.86862445 +.00000189 +00000-0 +46421-4 0  9996
2 27768 098.2405 000.1526 0034023 232.8819 126.9273 14.62838006833416
1 27769U 02054E   18211.86364019 +.00000196 +00000-0 +44960-4 0  9995
2 27769 098.1788 000.5559 0036711 167.1955 193.0189 14.65625897834739
1 27772U 99031F   18210.11850303 +.00000454 +00000-0 +13513-2 0  9998
2 27772 052.0188 113.0162 0121420 352.6564 148.8954 13.21159506761530
1 27797U 81053MR  18210.53449350 +.00000217 +00000-0 +28767-3 0  9997
2 27797 083.1451 298.7903 0192857 303.3971 111.8075 13.49750708249295
1 27798U 81071M   16049.23628946  .00000656  00000-0  00000+0 0  9996
2 27798  69.7363 281.7684 5500691  88.5935  34.8885  1.98167187111231
1 27803U 82055BQ  18211.80258517  .00000186  00000-0  19056-3 0  9998
2 27803  65.8199 335.1624 0019353 107.5752  54.7075 13.98024576389229
1 27804U 91068AR  18212.09517907  .00000324  00000-0  14937-2 0  9992
2 27804  82.6194  84.5728 0212544 326.8956 187.0977 12.67811327746378
1 27805U 92047L   18211.27741223 +.00002337 +00000-0 +89450-3 0  9999
2 27805 065.1493 224.9890 4716983 322.2464 012.5655 06.00891176343818
1 27806U 99057MW  18212.06237851 -.00000010  00000-0  12893-4 0  9998
2 27806  98.6658 152.8001 0109526 228.1850 130.9939 14.30840210871679
1 27908U 84069AA  18209.58085420 -.00000049 +00000-0 +32079-4 0  9994
2 27908 065.0416 197.7721 0060637 287.0099 072.4326 13.90882829783104
1 27909U 84069AB  18211.34218843 -.00000047  00000-0  33912-4 0  9994
2 27909  65.0473 180.2805 0060339 275.6520 159.6595 13.91293536781374
1 27910U 84069AC  18198.53194653 -.00000025  00000-0  51225-4 0  9996
2 27910  65.0545 242.2470 0061747 271.0100 161.1368 13.90864126790915
1 27911U 84069AD  18210.43900491 -.00000048 +00000-0 +33189-4 0  9990
2 27911 065.0484 222.4584 0062366 279.6572 079.7450 13.90482958794851
1 27912U 84069AE  07081.08070326 -.00000018 +00000-0 +57371-4 0  9997
2 27912 065.0436 239.4535 0062160 263.0398 095.5684 13.89757448214228
1 27913U 84069AF  18204.43349240 -.00000014 +00000-0 +59565-4 0  9993
2 27913 065.0444 225.3665 0061897 284.2199 075.1995 13.90731607789223
1 27958U 87079AX  18212.40270076  .00002219  00000-0  29584-2 0  9996
2 27958  65.0064 227.6826 5394279 152.0155 252.4538  4.80192670243707
1 27978U 88085Y   16061.45531078 +.00000032 +00000-0 +00000-0 0  9994
2 27978 059.5261 236.2488 4277145 000.1834 012.4317 04.20750558039312
1 27998U 88085AU  18212.12971091  .00001811  00000-0  19985-2 0  9993
2 27998  64.9933  44.9005 2777029  22.6304 347.6225  9.19682135319000
1 28042U 92093JP  18210.52216615 -.00000099 +00000-0 -28732-4 0  9995
2 28042 070.8781 270.3458 0067871 071.9611 350.6359 14.09252612106721
1 28055U 03048B   18211.92438090 +.00000408 +00000-0 +20475-3 0  9996
2 28055 098.6095 202.3236 0000598 300.9118 091.2677 14.21808681764492
1 28056U 03048C   18211.95213838 +.00000238 +00000-0 +12875-3 0  9997
2 28056 098.6099 202.3831 0001166 296.6134 063.4924 14.21284064764612
1 28067U 99057MX  18211.90887109 -.00000047  00000-0  85091-6 0  9999
2 28067  98.5462 194.5970 0090937 252.3750 106.7495 14.47714093825542
1 28068U 99057MY  18211.13270147  .00000149  00000-0  55197-4 0  9997
2 28068  98.5901 184.5463 0089735 289.9059  69.2479 14.44021011803335
1 28069U 99057MZ  18211.86186734 +.00000167 +00000-0 +57826-4 0  9997
2 28069 098.5446 182.3084 0078527 178.5017 181.6424 14.46296863288921
1 28070U 99057NA  18211.13211942 +.00000192 +00000-0 +60534-4 0  9997
2 28070 098.4613 180.2384 0071871 089.3476 271.5952 14.49501063837009
1 28071U 99057NB  18211.57704951 -.00000025 +00000-0 +65663-5 0  9998
2 28071 098.5206 132.3681 0109321 128.5534 358.6692 14.33158960834237
1 28072U 99057NC  18211.89124760  .00000092  00000-0  41497-4 0  9999
2 28072  98.6409 181.8513 0098030   0.1532  28.7396 14.40888945805891
1 28073U 99057ND  18211.36068083 +.00000032 +00000-0 +23499-4 0  9993
2 28073 098.5827 172.3588 0083560 238.3268 276.7143 14.41699025816027
1 28074U 99057NE  18211.04907587 -.00000003  00000-0  14609-4 0  9992
2 28074  98.6641 156.4785 0104899 173.2809 249.0778 14.32618634812224
1 28075U 99057NF  18211.37051425  .00000117  00000-0  51215-4 0  9999
2 28075  98.6890 178.9562 0105981 102.3869 258.9203 14.37572856798950
1 28080U 03048D   18212.53760718  .00000478  00000-0  22685-3 0  9999
2 28080  98.5246 231.6793 0002947 268.0795 243.7599 14.23941676763080
1 28193U 04009D   18212.17110939  .00030900  18521-7  19967-3 0  9992
2 28193  38.8312 166.6726 3022175 236.6616  90.7983  9.49778265356405
1 28211U 81021U   18210.62702812 -.00000007 +00000-0 +65919-4 0  9998
2 28211 064.9625 290.0929 0031452 110.8002 320.9805 13.91536230781765
1 28225U 04012F   18212.12504984  .00081782  00000-0  74814-3 0  9996
2 28225  97.4433  45.6059 0005200 109.3236 250.8587 15.67541649773731
1 28232U 04012J   18212.02537680  .00026019  00000-0  56717-3 0  9996
2 28232  97.9368 196.3704 0021485 269.7865  90.0919 15.43993930766591
1 28264U 03010D   16243.49348674 -.00000214  00000-0  00000+0 0  9994
2 28264  39.0360  33.8105 4923895 102.2584 315.1580  5.88254445231416
1 28270U 81016L   18206.05456543 -.00000309 +00000-0 +00000-0 0  9997
2 28270 066.6564 229.7315 6081356 045.3053 350.5752 02.02482840128190
1 28271U 84069AG  18170.05227030 -.00000018 +00000-0 +56430-4 0  9995
2 28271 065.0541 319.0186 0061603 280.0503 191.2825 13.90814158245644
1 28273U 84069AJ  18208.33720478 -.00000047 +00000-0 +33934-4 0  9990
2 28273 065.0473 196.4371 0062425 277.1409 082.2560 13.91131262732025
1 28274U 84069AK  18206.44006921 -.00000006 +00000-0 +66083-4 0  9997
2 28274 065.0505 210.8447 0062310 273.6599 085.7341 13.90994110776538
1 28275U 88019F   18211.60158889 -.00000038 +00000-0 +46096-4 0  9999
2 28275 065.0448 288.0797 0031228 136.1401 292.0202 13.81662609245804
1 28277U 91068AS  18210.42157975 +.00000365 +00000-0 +11266-2 0  9994
2 28277 082.6228 200.0146 0069260 066.5890 089.1769 13.02078691723005
1 28278U 91068AT  18211.68808079 +.00001886 +00000-0 +74154-2 0  9996
2 28278 082.2789 103.6431 0043957 243.1471 145.5908 12.87412728721883
1 28283U 93014L   18211.73911580 +.00002749 +00000-0 +29889-3 0  9998
2 28283 075.7410 233.2764 0066466 341.6077 018.2709 14.86753937271765
1 28284U 93014M   18212.02083188  .00000993  00000-0  18910-3 0  9998
2 28284  75.7479 334.3765 0101094 135.9322 224.9969 14.61570626759691
1 28288U 93014R   18210.42099328 +.00004540 +00000-0 +27811-3 0  9999
2 28288 075.7267 110.8242 0048007 189.9716 170.0538 15.09372501762969
1 28290U 93014T   18211.38193402  .00002655  00000-0  33864-3 0  9996
2 28290  75.7427 236.2494 0065902 350.6221   9.3728 14.80260808760926
1 28291U 93014U   18211.79740971  .00004755  00000-0  31026-3 0  9992
2 28291  75.7285 146.6962 0048284 233.0413 126.6362 15.07058384775268
1 28292U 93014V   18212.05886154  .00000160  00000-0  53421-4 0  9997
2 28292  75.7610 112.4249 0149912 329.1327  30.1083 14.36134002806189
1 28300U 91082M   18211.93867081 +.00000424 +00000-0 +19364-3 0  9994
2 28300 098.7769 231.5038 0012026 072.5787 043.6800 14.26676132740628
1 28302U 91082P   18212.49444946  .00000242  00000-0  13844-3 0  9994
2 28302  98.8723 224.1650 0029867 255.7088 104.0770 14.18510210737909
1 28303U 91082Q   18211.45772569 -.00000008 +00000-0 +15035-4 0  9991
2 28303 098.6658 201.7608 0029838 147.5162 004.4276 14.25147478742267
1 28304U 91082R   18211.98428192 -.00000009  00000-0  18381-4 0  9998
2 28304  98.9281 219.3168 0012006 215.6617 173.8316 14.16262793737774
1 28307U 91082U   18212.48429425  .00000049  00000-0  53319-4 0  9990
2 28307  99.0856 220.7462 0039483  29.5656 125.1864 14.09748674734395
1 28308U 91082V   18211.55721064  .00000161  00000-0  90364-4 0  9998
2 28308  98.7922 226.6824 0015489 106.9893  51.9675 14.23479274739288
1 28309U 91082W   18211.95493249 -.00000020 +00000-0 +11257-4 0  9993
2 28309 098.7633 208.8926 0013916 276.2591 112.8857 14.21715427740475
